NORAD_CAT_ID,OBJECT_NAME,OBJECT_TYPE,EPOCH,MEAN_MOTION,ECCENTRICITY,INCLINATION,RA_OF_ASC_NODE,ARG_OF_PERICENTER,MEAN_ANOMALY,BSTAR,MEAN_MOTION_DOT,MEAN_MOTION_DDOT,TLE_LINE0,TLE_LINE1,TLE_LINE2,SEMIMAJOR_AXIS,PERIOD,APOGEE,PERIGEE,DECAYED
53163.0,STARLINK-4104,PAYLOAD,2024-07-15 17:09:59,15.08840687,0.0001456,53.219,346.6361,100.1566,259.959,0.00020238,2.934e-05,0.0,0 STARLINK-4104,1 53163U 22083AH  24197.71527777  .00002934  00000-0  20238-3 0  9995,2 53163  53.2190 346.6361 0001456 100.1566 259.9590 15.08840687111115,6917.878,95.438,540.751,538.736,0.0
53163.0,STARLINK-4104,PAYLOAD,2024-07-16 13:50:00,15.08854008,0.0001299,53.2185,342.771,107.5037,252.6097,0.00068262,0.00010597,0.0,0 STARLINK-4104,1 53163U 22083AH  24198.57639453  .00010597  00000-0  68262-3 0  9998,2 53163  53.2185 342.7710 0001299 107.5037 252.6097 15.08854008110611,6917.838,95.437,540.601,538.804,0.0
53163.0,STARLINK-4104,PAYLOAD,2024-07-16 15:25:23,15.08857011,0.0001326,53.2183,342.4734,105.7293,254.3845,0.00083937,0.00013102,0.0,0 STARLINK-4104,1 53163U 22083AH  24198.64263432  .00013102  00000-0  83937-3 0  9997,2 53163  53.2183 342.4734 0001326 105.7293 254.3845 15.08857011110625,6917.828,95.436,540.611,538.776,0.0
53163.0,STARLINK-4104,PAYLOAD,2024-07-17 13:40:47,15.08852815,0.0001648,53.219,338.3107,140.3287,219.7826,0.00062061,9.606e-05,0.0,0 STARLINK-4104,1 53163U 22083AH  24199.56999387  .00009606  00000-0  62061-3 0  9993,2 53163  53.2190 338.3107 0001648 140.3287 219.7826 15.08852815110762,6917.841,95.437,540.846,538.566,0.0
53163.0,STARLINK-4104,PAYLOAD,2024-07-17 16:51:34,15.08841598,0.0001115,53.217,337.7136,68.2811,291.83,0.00029737,4.448e-05,0.0,0 STARLINK-4104,1 53163U 22083AH  24199.70247830  .00004448  00000-0  29737-3 0  9990,2 53163  53.2170 337.7136 0001115  68.2811 291.8300 15.08841598111412,6917.876,95.437,540.512,538.969,0.0
53163.0,STARLINK-4104,PAYLOAD,2024-07-18 08:45:25,15.08839202,0.000128,53.2169,334.7408,60.9805,299.1315,0.0002095,3.048e-05,0.0,0 STARLINK-4104,1 53163U 22083AH  24200.36488142  .00003048  00000-0  20950-3 0  9991,2 53163  53.2169 334.7408 0001280  60.9805 299.1315 15.08839202111511,6917.883,95.438,540.633,538.862,0.0
53163.0,STARLINK-4104,PAYLOAD,2024-07-18 15:06:58,15.08844429,0.0001082,53.2166,333.5518,70.9301,289.1808,0.00025537,3.779e-05,0.0,0 STARLINK-4104,1 53163U 22083AH  24200.62983910  .00003779  00000-0  25537-3 0  9990,2 53163  53.2166 333.5518 0001082  70.9301 289.1808 15.08844429110926,6917.867,95.437,540.48,538.983,0.0
53163.0,STARLINK-4104,PAYLOAD,2024-07-18 16:42:20,15.08857518,0.0001247,53.2172,333.2537,73.7717,286.3412,0.00040571,6.178e-05,0.0,0 STARLINK-4104,1 53163U 22083AH  24200.69607544  .00006178  00000-0  40571-3 0  9994,2 53163  53.2172 333.2537 0001247  73.7717 286.3412 15.08857518111560,6917.827,95.436,540.554,538.829,0.0
53163.0,STARLINK-4104,PAYLOAD,2024-07-19 13:22:22,15.08842628,0.00013,53.2173,329.3895,54.9696,305.1418,0.00018287,2.624e-05,0.0,0 STARLINK-4104,1 53163U 22083AH  24201.55720064  .00002624  00000-0  18287-3 0  9994,2 53163  53.2173 329.3895 0001300  54.9696 305.1418 15.08842628111697,6917.872,95.437,540.637,538.838,0.0
53163.0,STARLINK-4104,PAYLOAD,2024-07-19 14:57:45,15.08845101,0.0001123,53.2167,329.0903,78.7484,281.3635,0.00022667,3.322e-05,0.0,0 STARLINK-4104,1 53163U 22083AH  24201.62343869  .00003322  00000-0  22667-3 0  9999,2 53163  53.2167 329.0903 0001123  78.7484 281.3635 15.08845101111076,6917.865,95.437,540.507,538.953,0.0
53163.0,STARLINK-4104,PAYLOAD,2024-07-20 14:48:31,15.08849594,0.0001402,53.2177,324.6279,94.0046,266.1106,0.00014784,2.066e-05,0.0,0 STARLINK-4104,1 53163U 22083AH  24202.61703484  .00002066  00000-0  14784-3 0  9997,2 53163  53.2177 324.6279 0001402  94.0046 266.1106 15.08849594111220,6917.851,95.437,540.686,538.746,0.0
53163.0,STARLINK-4104,PAYLOAD,2024-07-21 13:03:56,15.08842137,0.0001357,53.2173,320.467,75.7947,284.3196,0.00011125,1.483e-05,0.0,0 STARLINK-4104,1 53163U 22083AH  24203.54440019  .00001483  00000-0  11125-3 0  9990,2 53163  53.2173 320.4670 0001357  75.7947 284.3196 15.08842137111991,6917.874,95.437,540.678,538.8,0.0
53163.0,STARLINK-4104,PAYLOAD,2024-07-22 08:08:34,15.08835423,0.000138,53.2171,316.8979,82.2782,277.8366,1.6717e-05,-2.2e-07,0.0,0 STARLINK-4104,1 53163U 22083AH  24204.33928488 -.00000022  00000-0  16717-4 0  9991,2 53163  53.2171 316.8979 0001380  82.2782 277.8366 15.08835423112117,6917.894,95.438,540.714,538.805,0.0
53163.0,STARLINK-4104,PAYLOAD,2024-07-23 14:20:53,15.08845544,0.0001547,53.218,311.2495,85.4521,274.6648,0.00011714,1.577e-05,0.0,0 STARLINK-4104,1 53163U 22083AH  24205.59784123  .00001577  00000-0  11714-3 0  9992,2 53163  53.2180 311.2495 0001547  85.4521 274.6648 15.08845544111673,6917.863,95.437,540.799,538.658,0.0
53163.0,STARLINK-4104,PAYLOAD,2024-07-24 17:22:27,15.08832008,0.0001471,53.2173,306.1949,83.458,276.6579,-2.3554e-05,-6.63e-06,0.0,0 STARLINK-4104,1 53163U 22083AH  24206.72393130 -.00000663  00000-0 -23554-4 0  9995,2 53163  53.2173 306.1949 0001471  83.4580 276.6579 15.08832008112476,6917.905,95.438,540.787,538.752,0.0
53163.0,STARLINK-4104,PAYLOAD,2024-07-25 23:34:51,15.08758542,3.56e-05,53.219,300.5451,204.2383,155.8593,-0.00068848,-0.00011203,0.0,0 STARLINK-4104,1 53163U 22083AH  24207.98254481 -.00011203  00000-0 -68848-3 0  9995,2 53163  53.2190 300.5451 0000356 204.2383 155.8593 15.08758542112661,6918.129,95.443,540.241,539.748,0.0
53163.0,STARLINK-4104,PAYLOAD,2024-07-26 05:56:19,15.08845804,0.0001773,53.2181,299.3538,77.1468,282.9722,8.8625e-05,1.123e-05,0.0,0 STARLINK-4104,1 53163U 22083AH  24208.24744350  .00001123  00000-0  88625-4 0  9998,2 53163  53.2181 299.3538 0001773  77.1468 282.9722 15.08845804112706,6917.863,95.437,540.954,538.501,0.0
53163.0,STARLINK-4104,PAYLOAD,2024-07-26 13:53:14,15.08847361,0.0001326,53.2161,297.8679,70.03,290.0835,0.00010753,1.424e-05,0.0,0 STARLINK-4104,1 53163U 22083AH  24208.57864174  .00001424  00000-0  10753-3 0  9991,2 53163  53.2161 297.8679 0001326  70.0300 290.0835 15.08847361112125,6917.858,95.437,540.64,538.806,0.0
53163.0,STARLINK-4104,PAYLOAD,2024-07-27 10:33:16,15.08790466,0.0001097,53.2184,293.9991,95.88,264.2317,0.00040307,6.124e-05,0.0,0 STARLINK-4104,1 53163U 22083AH  24209.43977189  .00006124  00000-0  40307-3 0  9998,2 53163  53.2184 293.9991 0001097  95.8800 264.2317 15.08790466112883,6918.032,95.441,540.656,539.138,0.0
53163.0,STARLINK-4104,PAYLOAD,2024-07-27 13:44:00,15.0881787,0.0001164,53.2187,293.4049,78.2646,281.8477,0.00069856,0.0001084,0.0,0 STARLINK-4104,1 53163U 22083AH  24209.57223140  .00010840  00000-0  69856-3 0  9994,2 53163  53.2187 293.4049 0001164  78.2646 281.8477 15.08817870112277,6917.948,95.439,540.618,539.008,0.0
53163.0,STARLINK-4104,PAYLOAD,2024-07-28 13:34:48,15.08855254,0.0001303,53.2173,288.9427,102.3399,257.7739,-0.00010014,-1.882e-05,0.0,0 STARLINK-4104,1 53163U 22083AH  24210.56583786 -.00001882  00000-0 -10014-3 0  9990,2 53163  53.2173 288.9427 0001303 102.3399 257.7739 15.08855254112428,6917.834,95.437,540.6,538.797,0.0
53163.0,STARLINK-4104,PAYLOAD,2024-07-29 11:50:13,15.0884365,0.0001647,53.218,284.7864,63.6379,296.4782,-1.0195e-05,-4.5e-06,0.0,0 STARLINK-4104,1 53163U 22083AH  24211.49320827 -.00000450  00000-0 -10195-4 0  9999,2 53163  53.2180 284.7864 0001647  63.6379 296.4782 15.08843650113193,6917.869,95.437,540.874,538.595,0.0
53163.0,STARLINK-4104,PAYLOAD,2024-07-29 21:22:32,15.08839034,0.0001591,53.217,283.0007,68.7493,291.3669,8.9179e-06,-1.46e-06,0.0,0 STARLINK-4104,1 53163U 22083AH  24211.89065083 -.00000146  00000-0  89179-5 0  9993,2 53163  53.2170 283.0007 0001591  68.7493 291.3669 15.08839034112620,6917.883,95.438,540.849,538.648,0.0
53163.0,STARLINK-4104,PAYLOAD,2024-07-30 11:41:00,15.0884141,0.0001292,53.2168,280.3249,87.7697,272.3443,8.8854e-05,1.127e-05,0.0,0 STARLINK-4104,1 53163U 22083AH  24212.48680804  .00001127  00000-0  88854-4 0  9990,2 53163  53.2168 280.3249 0001292  87.7697 272.3443 15.08841410112710,6917.876,95.437,540.635,538.847,0.0
53163.0,STARLINK-4104,PAYLOAD,2024-07-30 21:13:19,15.08839993,0.0001199,53.2158,278.5408,79.7382,280.3745,1.2911e-05,-8.2e-07,0.0,0 STARLINK-4104,1 53163U 22083AH  24212.88425149 -.00000082  00000-0  12911-4 0  9994,2 53163  53.2158 278.5408 0001199  79.7382 280.3745 15.08839993113407,6917.88,95.438,540.575,538.916,0.0
53163.0,STARLINK-4104,PAYLOAD,2024-07-31 11:31:48,15.08828788,0.0001293,53.2168,275.8652,88.2844,271.8296,-5.173e-07,-2.96e-06,0.0,0 STARLINK-4104,1 53163U 22083AH  24213.48042287 -.00000296  00000-0 -51730-6 0  9991,2 53163  53.2168 275.8652 0001293  88.2844 271.8296 15.08828788113497,6917.915,95.438,540.674,538.885,0.0
53163.0,STARLINK-4104,PAYLOAD,2024-08-01 12:57:57,15.08854744,0.0001437,53.2176,271.1064,97.9112,262.2043,0.00014179,1.97e-05,0.0,0 STARLINK-4104,1 53163U 22083AH  24214.54024397  .00001970  00000-0  14179-3 0  9992,2 53163  53.2176 271.1064 0001437  97.9112 262.2043 15.08854744113650,6917.835,95.437,540.694,538.706,0.0
53163.0,STARLINK-4104,PAYLOAD,2024-08-01 20:54:53,15.08850644,0.000138,53.2166,269.6155,72.3495,287.7648,5.554e-05,5.96e-06,0.0,0 STARLINK-4104,1 53163U 22083AH  24214.87144683  .00000596  00000-0  55540-4 0  9990,2 53163  53.2166 269.6155 0001380  72.3495 287.7648 15.08850644113704,6917.848,95.437,540.668,538.758,0.0
53163.0,STARLINK-4104,PAYLOAD,2024-08-02 12:48:44,15.08843826,0.0001378,53.216,266.6422,80.3235,279.7913,9.4527e-05,1.217e-05,0.0,0 STARLINK-4104,1 53163U 22083AH  24215.53385150  .00001217  00000-0  94527-4 0  9999,2 53163  53.2160 266.6422 0001378  80.3235 279.7913 15.08843826113801,6917.869,95.437,540.687,538.78,0.0
53163.0,STARLINK-4104,PAYLOAD,2024-08-02 20:45:40,15.0884182,0.0001384,53.2161,265.155,79.0043,281.1105,3.1542e-05,2.14e-06,0.0,0 STARLINK-4104,1 53163U 22083AH  24215.86505349  .00000214  00000-0  31542-4 0  9993,2 53163  53.2161 265.1550 0001384  79.0043 281.1105 15.08841820113225,6917.875,95.437,540.697,538.782,0.0
